CCSDS_OMM_VERS = 2.0
CREATION_DATE  = 
ORIGINATOR     = 

OBJECT_NAME    = STARLINK-36566
OBJECT_ID      = 2026-014V
CENTER_NAME    = EARTH
REF_FRAME      = TEME
TIME_SYSTEM    = UTC
MEAN_ELEMENT_THEORY = SGP/SGP4

EPOCH          = 2026-01-27T14:00:04.000032
MEAN_MOTION    = 16.03906342
ECCENTRICITY   = .0001062
INCLINATION    = 97.2809
RA_OF_ASC_NODE = 270.2261
ARG_OF_PERICENTER = 73.4366
MEAN_ANOMALY   = 348.7989

EPHEMERIS_TYPE = 0
CLASSIFICATION_TYPE = U
NORAD_CAT_ID   = 67551
ELEMENT_SET_NO = 999
REV_AT_EPOCH   = 208
BSTAR          = -.18209E-2
MEAN_MOTION_DOT = -.1152033E-1
MEAN_MOTION_DDOT = .44554E-3

CCSDS_OMM_VERS = 2.0
CREATION_DATE  = 
ORIGINATOR     = 

OBJECT_NAME    = STARLINK-36567
OBJECT_ID      = 2026-014W
CENTER_NAME    = EARTH
REF_FRAME      = TEME
TIME_SYSTEM    = UTC
MEAN_ELEMENT_THEORY = SGP/SGP4

EPOCH          = 2026-01-27T14:00:04.000032
MEAN_MOTION    = 16.04039466
ECCENTRICITY   = .0001171
INCLINATION    = 97.2808
RA_OF_ASC_NODE = 270.2268
ARG_OF_PERICENTER = 90.6488
MEAN_ANOMALY   = 333.0254

EPHEMERIS_TYPE = 0
CLASSIFICATION_TYPE = U
NORAD_CAT_ID   = 67552
ELEMENT_SET_NO = 999
REV_AT_EPOCH   = 208
BSTAR          = -.18034E-2
MEAN_MOTION_DOT = -.1150075E-1
MEAN_MOTION_DDOT = .44484E-3

CCSDS_OMM_VERS = 2.0
CREATION_DATE  = 
ORIGINATOR     = 

OBJECT_NAME    = STARLINK-36569
OBJECT_ID      = 2026-014X
CENTER_NAME    = EARTH
REF_FRAME      = TEME
TIME_SYSTEM    = UTC
MEAN_ELEMENT_THEORY = SGP/SGP4

EPOCH          = 2026-01-27T14:00:04.000032
MEAN_MOTION    = 16.04212108
ECCENTRICITY   = .0001101
INCLINATION    = 97.2808
RA_OF_ASC_NODE = 270.2275
ARG_OF_PERICENTER = 73.5728
MEAN_ANOMALY   = 351.8823

EPHEMERIS_TYPE = 0
CLASSIFICATION_TYPE = U
NORAD_CAT_ID   = 67553
ELEMENT_SET_NO = 999
REV_AT_EPOCH   = 208
BSTAR          = -.17766E-2
MEAN_MOTION_DOT = -.1144768E-1
MEAN_MOTION_DDOT = .44196E-3

CCSDS_OMM_VERS = 2.0
CREATION_DATE  = 
ORIGINATOR     = 

OBJECT_NAME    = STARLINK-36395
OBJECT_ID      = 2026-014Y
CENTER_NAME    = EARTH
REF_FRAME      = TEME
TIME_SYSTEM    = UTC
MEAN_ELEMENT_THEORY = SGP/SGP4

EPOCH          = 2026-01-27T14:00:04.000032
MEAN_MOTION    = 16.04664593
ECCENTRICITY   = .000112
INCLINATION    = 97.2808
RA_OF_ASC_NODE = 270.2298
ARG_OF_PERICENTER = 81.7638
MEAN_ANOMALY   = 348.5094

EPHEMERIS_TYPE = 0
CLASSIFICATION_TYPE = U
NORAD_CAT_ID   = 67554
ELEMENT_SET_NO = 999
REV_AT_EPOCH   = 208
BSTAR          = -.16994E-2
MEAN_MOTION_DOT = -.1125314E-1
MEAN_MOTION_DDOT = .43049E-3

CCSDS_OMM_VERS = 2.0
CREATION_DATE  = 
ORIGINATOR     = 

OBJECT_NAME    = STARLINK-36559
OBJECT_ID      = 2026-014Z
CENTER_NAME    = EARTH
REF_FRAME      = TEME
TIME_SYSTEM    = UTC
MEAN_ELEMENT_THEORY = SGP/SGP4

EPOCH          = 2026-01-27T14:00:04.000032
MEAN_MOTION    = 16.04528708
ECCENTRICITY   = .0001077
INCLINATION    = 97.2809
RA_OF_ASC_NODE = 270.2291
ARG_OF_PERICENTER = 76.7559
MEAN_ANOMALY   = 352.0203

EPHEMERIS_TYPE = 0
CLASSIFICATION_TYPE = U
NORAD_CAT_ID   = 67555
ELEMENT_SET_NO = 999
REV_AT_EPOCH   = 208
BSTAR          = -.17226E-2
MEAN_MOTION_DOT = -.1131347E-1
MEAN_MOTION_DDOT = .43406E-3

CCSDS_OMM_VERS = 2.0
CREATION_DATE  = 
ORIGINATOR     = 

OBJECT_NAME    = 2026-015A
OBJECT_ID      = 2026-015A
CENTER_NAME    = EARTH
REF_FRAME      = TEME
TIME_SYSTEM    = UTC
MEAN_ELEMENT_THEORY = SGP/SGP4

EPOCH          = 2026-01-29T12:11:35.895840
MEAN_MOTION    = 13.52685072
ECCENTRICITY   = .0004871
INCLINATION    = 88.9995
RA_OF_ASC_NODE = 282.6421
ARG_OF_PERICENTER = 108.7991
MEAN_ANOMALY   = 251.3690

EPHEMERIS_TYPE = 0
CLASSIFICATION_TYPE = U
NORAD_CAT_ID   = 67556
ELEMENT_SET_NO = 999
REV_AT_EPOCH   = 96
BSTAR          = .16143E-3
MEAN_MOTION_DOT = .119E-5
MEAN_MOTION_DDOT = 0

CCSDS_OMM_VERS = 2.0
CREATION_DATE  = 
ORIGINATOR     = 

OBJECT_NAME    = 2026-015B
OBJECT_ID      = 2026-015B
CENTER_NAME    = EARTH
REF_FRAME      = TEME
TIME_SYSTEM    = UTC
MEAN_ELEMENT_THEORY = SGP/SGP4

EPOCH          = 2026-01-29T12:11:46.731264
MEAN_MOTION    = 13.52660460
ECCENTRICITY   = .0004956
INCLINATION    = 88.9995
RA_OF_ASC_NODE = 282.6424
ARG_OF_PERICENTER = 108.0916
MEAN_ANOMALY   = 252.0776

EPHEMERIS_TYPE = 0
CLASSIFICATION_TYPE = U
NORAD_CAT_ID   = 67557
ELEMENT_SET_NO = 999
REV_AT_EPOCH   = 96
BSTAR          = .86048E-4
MEAN_MOTION_DOT = .69E-6
MEAN_MOTION_DDOT = 0

CCSDS_OMM_VERS = 2.0
CREATION_DATE  = 
ORIGINATOR     = 

OBJECT_NAME    = ELECTRON R/B
OBJECT_ID      = 2026-015C
CENTER_NAME    = EARTH
REF_FRAME      = TEME
TIME_SYSTEM    = UTC
MEAN_ELEMENT_THEORY = SGP/SGP4

EPOCH          = 2026-01-29T10:08:15.600192
MEAN_MOTION    = 14.91743118
ECCENTRICITY   = .0598405
INCLINATION    = 89.0046
RA_OF_ASC_NODE = 282.4597
ARG_OF_PERICENTER = 245.0764
MEAN_ANOMALY   = 108.7165

EPHEMERIS_TYPE = 0
CLASSIFICATION_TYPE = U
NORAD_CAT_ID   = 67558
ELEMENT_SET_NO = 999
REV_AT_EPOCH   = 104
BSTAR          = .1291E-2
MEAN_MOTION_DOT = .1160422E-1
MEAN_MOTION_DDOT = -.49583E-6

CCSDS_OMM_VERS = 2.0
CREATION_DATE  = 
ORIGINATOR     = 

OBJECT_NAME    = ELECTRON KICK STAGE R/B
OBJECT_ID      = 2026-015D
CENTER_NAME    = EARTH
REF_FRAME      = TEME
TIME_SYSTEM    = UTC
MEAN_ELEMENT_THEORY = SGP/SGP4

EPOCH          = 2026-01-29T10:44:08.245824
MEAN_MOTION    = 14.66032619
ECCENTRICITY   = .0537763
INCLINATION    = 89.0540
RA_OF_ASC_NODE = 282.5214
ARG_OF_PERICENTER = 311.3325
MEAN_ANOMALY   = 44.2772

EPHEMERIS_TYPE = 0
CLASSIFICATION_TYPE = U
NORAD_CAT_ID   = 67559
ELEMENT_SET_NO = 999
REV_AT_EPOCH   = 103
BSTAR          = .13244E-2
MEAN_MOTION_DOT = .77729E-3
MEAN_MOTION_DDOT = .41606E-6

CCSDS_OMM_VERS = 2.0
CREATION_DATE  = 
ORIGINATOR     = 

OBJECT_NAME    = STARLINK-36426
OBJECT_ID      = 2026-014AA
CENTER_NAME    = EARTH
REF_FRAME      = TEME
TIME_SYSTEM    = UTC
MEAN_ELEMENT_THEORY = SGP/SGP4

EPOCH          = 2026-01-27T14:00:04.000032
MEAN_MOTION    = 16.04339818
ECCENTRICITY   = .0001173
INCLINATION    = 97.2806
RA_OF_ASC_NODE = 270.2281
ARG_OF_PERICENTER = 81.1243
MEAN_ANOMALY   = 345.7526

EPHEMERIS_TYPE = 0
CLASSIFICATION_TYPE = U
NORAD_CAT_ID   = 67560
ELEMENT_SET_NO = 999
REV_AT_EPOCH   = 208
BSTAR          = -.17536E-2
MEAN_MOTION_DOT = -.1138703E-1
MEAN_MOTION_DDOT = .4383E-3

CCSDS_OMM_VERS = 2.0
CREATION_DATE  = 
ORIGINATOR     = 

OBJECT_NAME    = CZ-2C DEB
OBJECT_ID      = 2026-009C
CENTER_NAME    = EARTH
REF_FRAME      = TEME
TIME_SYSTEM    = UTC
MEAN_ELEMENT_THEORY = SGP/SGP4

EPOCH          = 2026-01-27T16:11:28.629024
MEAN_MOTION    = 15.10438808
ECCENTRICITY   = .01167511
INCLINATION    = 97.2318
RA_OF_ASC_NODE = 101.8078
ARG_OF_PERICENTER = 181.6214
MEAN_ANOMALY   = 178.4655

EPHEMERIS_TYPE = 0
CLASSIFICATION_TYPE = U
NORAD_CAT_ID   = 67586
ELEMENT_SET_NO = 999
REV_AT_EPOCH   = 188
BSTAR          = .10752384E-2
MEAN_MOTION_DOT = .20786E-3
MEAN_MOTION_DDOT = 0

CCSDS_OMM_VERS = 2.0
CREATION_DATE  = 
ORIGINATOR     = 

OBJECT_NAME    = CZ-2C DEB
OBJECT_ID      = 2026-009D
CENTER_NAME    = EARTH
REF_FRAME      = TEME
TIME_SYSTEM    = UTC
MEAN_ELEMENT_THEORY = SGP/SGP4

EPOCH          = 2026-01-29T10:41:18.194208
MEAN_MOTION    = 15.12453732
ECCENTRICITY   = .0109902
INCLINATION    = 97.6743
RA_OF_ASC_NODE = 104.2244
ARG_OF_PERICENTER = 177.8733
MEAN_ANOMALY   = 182.2988

EPHEMERIS_TYPE = 0
CLASSIFICATION_TYPE = U
NORAD_CAT_ID   = 67587
ELEMENT_SET_NO = 999
REV_AT_EPOCH   = 215
BSTAR          = .24798E-2
MEAN_MOTION_DOT = .50191E-3
MEAN_MOTION_DDOT = 0

